*******************************************************************************
 Revised: April 12, 2021                 Earth                              399
 
 GEOPHYSICAL PROPERTIES (revised May 9, 2022):
  Vol. Mean Radius (km)    = 6371.01+-0.02   Mass x10^24 (kg)= 5.97219+-0.0006
  Equ. radius, km          = 6378.137        Mass layers:
  Polar axis, km           = 6356.752          Atmos         = 5.1   x 10^18 kg
  Flattening               = 1/298.257223563   oceans        = 1.4   x 10^21 kg
  Density, g/cm^3          = 5.51              crust         = 2.6   x 10^22 kg
  J2 (IERS 2010)           = 0.00108262545     mantle        = 4.043 x 10^24 kg
  g_p, m/s^2  (polar)      = 9.8321863685      outer core    = 1.835 x 10^24 kg
  g_e, m/s^2  (equatorial) = 9.7803267715      inner core    = 9.675 x 10^22 kg
  g_o, m/s^2               = 9.82022         Fluid core rad  = 3480 km
  GM, km^3/s^2             = 398600.435436   Inner core rad  = 1215 km
  GM 1-sigma, km^3/s^2     =      0.0014     Escape velocity = 11.186 km/s
  Rot. Rate (rad/s)        = 0.00007292115   Surface area:
  Mean sidereal day, hr    = 23.9344695944     land          = 1.48 x 10^8 km
  Mean solar day 2000.0, s = 86400.002         sea           = 3.62 x 10^8 km
  Mean solar day 1820.0, s = 86400.0         Love no., k2    = 0.299
  Moment of inertia        = 0.3308          Atm. pressure   = 1.0 bar
  Mean surface temp (Ts), K= 287.6           Volume, km^3    = 1.08321 x 10^12
  Mean effect. temp (Te), K= 255             Magnetic moment = 0.61 gauss Rp^3
  Geometric albedo         = 0.367           Vis. mag. V(1,0)= -3.86
  Solar Constant (W/m^2)   = 1367.6 (mean), 1414 (perihelion), 1322 (aphelion)
 HELIOCENTRIC ORBIT CHARACTERISTICS:
  Obliquity to orbit, deg  = 23.4392911  Sidereal orb period  = 1.0000174 y
  Orbital speed, km/s      = 29.79       Sidereal orb period  = 365.25636 d
  Mean daily motion, deg/d = 0.9856474   Hill's sphere radius = 234.9       
*******************************************************************************


*******************************************************************************
Ephemeris / WWW_USER Sun May  7 13:02:19 2023 Pasadena, USA      / Horizons
*******************************************************************************
Target body name: Earth (399)                     {source: DE441}
Center body name: Sun (10)                        {source: DE441}
Center-site name: BODY CENTER
*******************************************************************************
Start time      : A.D. 2018-Jan-01 00:00:00.0000 TDB
Stop  time      : A.D. 2023-Jan-01 00:00:00.0000 TDB
Step-size       : 1440 minutes
*******************************************************************************
Center geodetic : 0.0, 0.0, 0.0                   {E-lon(deg),Lat(deg),Alt(km)}
Center cylindric: 0.0, 0.0, 0.0                   {E-lon(deg),Dxy(km),Dz(km)}
Center radii    : 696000.0, 696000.0, 696000.0 km {Equator_a, b, pole_c}
Output units    : AU-D
Calendar mode   : Mixed Julian/Gregorian
Output type     : GEOMETRIC cartesian states
Output format   : 3 (position, velocity, LT, range, range-rate)
Reference frame : Ecliptic of J2000.0
*******************************************************************************
            JDTDB,            Calendar Date (TDB),                      X,                      Y,                      Z,                     VX,                     VY,                     VZ,                     LT,                     RG,                     RR,
**************************************************************************************************************************************************************************************************************************************************************************
$$SOE
2458395.500000000, A.D. 2018-Oct-04 00:00:00.0000,  9.838294488369076E-01,  1.817008170148847E-01, -1.173610287491073E-05, -3.398963184698727E-03,  1.685767425497978E-02, -1.383145653385905E-06,  5.778219404824953E-03,  1.000467676359584E+00, -2.808155444941709E-04,
2458396.500000000, A.D. 2018-Oct-05 00:00:00.0000,  9.802847201102334E-01,  1.985315362092504E-01, -1.311382294058229E-05, -3.690420722971324E-03,  1.680288165517049E-02, -1.365547224915707E-06,  5.776595086631879E-03,  1.000186434382698E+00, -2.817085996872918E-04,
2458397.500000000, A.D. 2018-Oct-06 00:00:00.0000,  9.764487817996340E-01,  2.153048007387613E-01, -1.445389035989845E-05, -3.981354024613506E-03,  1.674275109653190E-02, -1.308141013561908E-06,  5.774964955137288E-03,  9.999041858638567E-01, -2.828206779006611E-04,
2458398.500000000, A.D. 2018-Oct-07 00:00:00.0000,  9.723222477872823E-01,  2.320152357619171E-01, -1.571796438791357E-05, -4.271579441921714E-03,  1.667721379631629E-02, -1.214421476400331E-06,  5.773327907131698E-03,  9.996207397882586E-01, -2.840917593796272E-04,
2458399.500000000, A.D. 2018-Oct-08 00:00:00.0000,  9.679059268611001E-01,  2.486574142911540E-01, -1.687282476575946E-05, -4.560892797451441E-03,  1.660623577003810E-02, -1.091058881317851E-06,  5.771683249495191E-03,  9.993359761459107E-01, -2.854410439973129E-04,
2458400.500000000, A.D. 2018-Oct-09 00:00:00.0000,  9.632008365645696E-01,  2.652258955857941E-01, -1.789321684647148E-05, -4.849083347151260E-03,  1.652982395019637E-02, -9.471404812311566E-07,  5.770030794330120E-03,  9.990498624033439E-01, -2.867762354167844E-04,
2458401.500000000, A.D. 2018-Oct-10 00:00:00.0000,  9.582082019466571E-01,  2.817152661340157E-01, -1.876368093354268E-05, -5.135949304064636E-03,  1.644802502674132E-02, -7.929409596316795E-07,  5.768370891558979E-03,  9.987624591477597E-01, -2.880054037238614E-04,
2458402.500000000, A.D. 2018-Oct-11 00:00:00.0000,  9.529294398629483E-01,  2.981201758102437E-01, -1.947905537953737E-05, -5.421310511355424E-03,  1.636091726092559E-02, -6.385670463692924E-07,  5.766704393836893E-03,  9.984739140118166E-01, -2.890479582653898E-04,
2458403.500000000, A.D. 2018-Oct-12 00:00:00.0000,  9.473661334566919E-01,  3.144353635094283E-01, -2.004372600892391E-05, -5.705015085943317E-03,  1.626859828199300E-02, -4.928617711477897E-07,  5.765032568375707E-03,  9.981844464064443E-01, -2.898416819232785E-04,
2458404.500000000, A.D. 2018-Oct-13 00:00:00.0000,  9.415200033318573E-01,  3.306556702706831E-01, -2.047001627777004E-05, -5.986939540581234E-03,  1.617117291112795E-02, -3.628015258153852E-07,  5.763356982813760E-03,  9.978943277598068E-01, -2.903446815129410E-04,
2458405.500000000, A.D. 2018-Oct-14 00:00:00.0000,  9.353928811518457E-01,  3.467760415857154E-01, -2.077623251257841E-05, -6.266984244024920E-03,  1.606874405969601E-02, -2.533936050371952E-07,  5.761679392729970E-03,  9.976038620409707E-01, -2.905331421019130E-04,
2458406.500000000, A.D. 2018-Oct-15 00:00:00.0000,  9.289866889621380E-01,  3.627915226833761E-01, -2.098479678057731E-05, -6.545066962308074E-03,  1.596140780939138E-02, -1.679213600519849E-07,  5.760001649635881E-03,  9.973133698292229E-01, -2.903968283674229E-04,
2458407.500000000, A.D. 2018-Oct-16 00:00:00.0000,  9.223034249373677E-01,  3.786972508178979E-01, -2.112071577005415E-05, -6.821116771145047E-03,  1.584925216450577E-02, -1.083398028101087E-07,  5.758325636787124E-03,  9.970231772001678E-01, -2.899342182098470E-04,
2458408.500000000, A.D. 2018-Oct-17 00:00:00.0000,  9.153451544505876E-01,  3.944884476276008E-01, -2.121045173601203E-05, -7.095069630834057E-03,  1.573235820944371E-02, -7.566301610707410E-08,  5.756653230998038E-03,  9.967336091141342E-01, -2.891485099614360E-04,
2458409.500000000, A.D. 2018-Oct-18 00:00:00.0000,  9.081140045401073E-01,  4.101604132950418E-01, -2.128113493447694E-05, -7.366866027724571E-03,  1.561080235208026E-02, -7.024909519723761E-08,  5.754986283504352E-03,  9.964449861026529E-01, -2.880450674739316E-04,
2458410.500000000, A.D. 2018-Oct-19 00:00:00.0000,  9.006121597445711E-01,  4.257085230403314E-01, -2.135999116435402E-05, -7.636450545722140E-03,  1.548465859672282E-02, -9.194203727582285E-08,  5.753326611083974E-03,  9.961576227310668E-01, -2.866304180096491E-04,
2458411.500000000, A.D. 2018-Oct-20 00:00:00.0000,  8.928418575597833E-01,  4.411282255726761E-01, -2.147383588784262E-05, -7.903772972710887E-03,  1.535400007988455E-02, -1.400638558450558E-07,  5.751675988704393E-03,  9.958718263254703E-01, -2.849126980959106E-04,
2458412.500000000, A.D. 2018-Oct-21 00:00:00.0000,  8.848053822381092E-01,  4.564150424703339E-01, -2.164849075556088E-05, -8.168790409851138E-03,  1.521889931238158E-02, -2.132711368857823E-07,  5.750036135892504E-03,  9.955878946127159E-01, -2.829033397312720E-04,
2458413.500000000, A.D. 2018-Oct-22 00:00:00.0000,  8.765050562508294E-01,  4.715645669854048E-01, -2.190800187079113E-05, -8.431469709507115E-03,  1.507942673692497E-02, -3.093093599015490E-07,  5.748408690502966E-03,  9.953061111785473E-01, -2.806196832404298E-04,
2458414.500000000, A.D. 2018-Oct-23 00:00:00.0000,  8.679432294980765E-01,  4.865724604821658E-01, -2.227358428798129E-05, -8.691789383313345E-03,  1.493564743662348E-02, -4.247231860590043E-07,  5.746795165857152E-03,  9.950267380464365E-01, -2.780880204497763E-04,
2458415.500000000, A.D. 2018-Oct-24 00:00:00.0000,  8.591222672937411E-01,  5.014344447319822E-01, -2.276229021371303E-05, -8.949739971129389E-03,  1.478761622043578E-02, -5.546105739224831E-07,  5.745196890799596E-03,  9.947500052986837E-01, -2.753463213863288E-04,
2458416.500000000, A.D. 2018-Oct-25 00:00:00.0000,  8.500445391596662E-01,  5.161462887871593E-01, -2.338549862571776E-05, -9.205321918026378E-03,  1.463537188082998E-02, -6.925304081930444E-07,  5.743614937187633E-03,  9.944760985216328E-01, -2.724456932875219E-04,
2458417.500000000, A.D. 2018-Oct-26 00:00:00.0000,  8.407124112304083E-01,  5.307037902556369E-01, -2.414743339719380E-05, -9.458540452880970E-03,  1.447893200673285E-02, -8.306660085358863E-07,  5.742050044882749E-03,  9.942051458183290E-01, -2.694496574509173E-04,
